1 48214U 21031E   22086.42083461  .00000053  00000-0  10745-3 0  9990
2 48214  87.8960 236.2631 0002920  77.9486 282.1971 13.14503942 45692
1 48214U 21031E   22086.87754133  .00000072  00000-0  15849-3 0  9991
2 48214  87.8962 236.1721 0002893  77.3012 282.8441 13.14504110 45755
1 48214U 21031E   22087.48648368  .00000170  00000-0  42423-3 0  9998
2 48214  87.8963 236.0508 0002882  76.6975 283.4476 13.14503794 45837
1 48214U 21031E   22087.48648368  .00000170  00000-0  42423-3 0  9998
2 48214  87.8963 236.0508 0002882  76.6975 283.4476 13.14503794 45837
1 48214U 21031E   22087.86707243  .00000155  00000-0  38354-3 0  9999
2 48214  87.8963 235.9750 0002864  76.2466 283.8982 13.14504058 45880
1 48214U 21031E   22088.47601419  .00000269  00000-0  69144-3 0  9992
2 48214  87.8963 235.8537 0002863  75.5434 284.6013 13.14504046 45968
1 48214U 21031E   22088.70436615  .00000354  00000-0  91967-3 0  9995
2 48214  87.8963 235.8081 0002855  75.6596 284.4850 13.14505282 45996
1 48214U 21031E   22088.85660268  .00000170  00000-0  42383-3 0  9998
2 48214  87.8964 235.7778 0002820  75.3296 284.8147 13.14504451 46019
1 48214U 21031E   22089.46554458  .00000275  00000-0  70807-3 0  9997
2 48214  87.8964 235.6565 0002822  74.6065 285.5376 13.14503573 46094
1 48214U 21031E   22089.77001521  .00000146  00000-0  35849-3 0  9993
2 48214  87.8965 235.5958 0002785  74.4457 285.6980 13.14504007 46131
1 48214U 21031E   22089.84613243  .00000104  00000-0  24484-3 0  9998
2 48214  87.8966 235.5806 0002775  74.3034 285.8402 13.14504706 46141
1 48214U 21031E   22090.45507402  .00000237  00000-0  60384-3 0  9992
2 48214  87.8966 235.4593 0002774  73.6696 286.4738 13.14503464 46226
1 48214U 21031E   22090.83566079  .00000137  00000-0  33523-3 0  9993
2 48214  87.8967 235.3835 0002722  72.5906 287.5521 13.14505397 46274
1 48214U 21031E   22090.83566079  .00000137  00000-0  33523-3 0  9993
2 48214  87.8967 235.3835 0002722  72.5906 287.5521 13.14505397 46274
1 48214U 21031E   22091.44460291 -.00000008  00000-0 -54959-4 0  9996
2 48214  87.8966 235.2621 0002763  71.5091 288.6338 13.14504164 46352
1 48214U 21031E   22091.82519055 -.00000010  00000-0 -62799-4 0  9995
2 48214  87.8967 235.1864 0002740  71.5945 288.5482 13.14504555 46403
1 48214U 21031E   22092.12966029  .00000097  00000-0  22600-3 0  9995
2 48214  87.8968 235.1259 0002727  71.8672 288.2754 13.14504846 46443
1 48214U 21031E   22092.89083322 -.00002615  00000-0 -70897-2 0  9995
2 48214  87.8970 234.9743 0002479  52.3305 307.8049 13.14516942 46548
1 48214U 21031E   22092.89083322 -.00002615  00000-0 -70897-2 0  9995
2 48214  87.8970 234.9743 0002479  52.3305 307.8049 13.14516942 46548
1 48214U 21031E   22093.80424946 -.00000254  00000-0 -71870-3 0  9998
2 48214  87.8973 234.7927 0002677  70.5947 289.5472 13.14503908 46664
1 48214U 21031E   22093.88036822 -.00000408  00000-0 -11340-2 0  9994
2 48214  87.8972 234.7775 0002678  70.5000 289.6419 13.14502968 46673
1 48214U 21031E   22094.41319325 -.00000396  00000-0 -11019-2 0  9995
2 48214  87.8974 234.6716 0002671  70.0588 290.0829 13.14501969 46747
1 48214U 21031E   22094.86990127 -.00000523  00000-0 -14466-2 0  9990
2 48214  87.8976 234.5807 0002651  69.7523 290.3892 13.14501164 46808
1 48214U 21031E   22095.09825407 -.00000381  00000-0 -10620-2 0  9994
2 48214  87.8974 234.5350 0002626  68.8947 291.2463 13.14501837 46835
1 48214U 21031E   22095.40272536 -.00000336  00000-0 -94021-3 0  9996
2 48214  87.8975 234.4743 0002616  68.6356 291.5053 13.14502017 46875
1 48214U 21031E   22095.85943383 -.00000368  00000-0 -10277-2 0  9995
2 48214  87.8976 234.3835 0002585  67.9891 292.1513 13.14501009 46933
1 48214U 21031E   22096.39225887 -.00000018  00000-0 -81869-4 0  9996
2 48214  87.8977 234.2772 0002551  67.6957 292.4443 13.14500918 47008
1 48214U 21031E   22096.39225887 -.00000018  00000-0 -81869-4 0  9996
2 48214  87.8977 234.2772 0002551  67.6957 292.4443 13.14500918 47008
1 48214U 21031E   22096.92508543  .00000083  00000-0  19014-3 0  9990
2 48214  87.8979 234.1712 0002511  66.6278 293.5116 13.14500029 47073
1 48214U 21031E   22097.38179292  .00000175  00000-0  43869-3 0  9993
2 48214  87.8980 234.0804 0002497  66.0727 294.0664 13.14500665 47139
1 48214U 21031E   22097.83850143  .00000102  00000-0  24055-3 0  9990
2 48214  87.8981 233.9897 0002465  65.2483 294.8903 13.14500366 47193
1 48214U 21031E   22098.06685616  .00000150  00000-0  37022-3 0  9998
2 48214  87.8982 233.9442 0002458  64.7170 295.4214 13.14499300 47220
1 48214U 21031E   22098.59968054  .00000258  00000-0  66243-3 0  9992
2 48214  87.8983 233.8381 0002442  64.4232 295.7150 13.14500902 47291
1 48214U 21031E   22098.90415289  .00000218  00000-0  55245-3 0  9990
2 48214  87.8982 233.7774 0002421  64.5876 295.5504 13.14500326 47333
1 48214U 21031E   22099.13250636  .00000245  00000-0  62709-3 0  9992
2 48214  87.8982 233.7319 0002417  64.2243 295.9136 13.14500775 47364
1 48214U 21031E   22099.36086020  .00000243  00000-0  62156-3 0  9995
2 48214  87.8982 233.6865 0002411  63.9038 296.2339 13.14500701 47392
1 48214U 21031E   22099.89368549  .00000250  00000-0  63879-3 0  9993
2 48214  87.8984 233.5805 0002382  63.4661 296.6712 13.14500696 47461
1 48214U 21031E   22100.42651149  .00000099  00000-0  23354-3 0  9991
2 48214  87.8984 233.4744 0002354  63.0792 297.0578 13.14499904 47534
1 48214U 21031E   22100.42651149  .00000099  00000-0  23354-3 0  9991
2 48214  87.8984 233.4744 0002354  63.0792 297.0578 13.14499904 47534
1 48214U 21031E   22100.88321734  .00000215  00000-0  54496-3 0  9996
2 48214  87.8984 233.3836 0002335  62.9730 297.1638 13.14501017 47597
1 48214U 21031E   22101.41604195  .00000204  00000-0  51585-3 0  9995
2 48214  87.8986 233.2776 0002321  62.8592 297.2774 13.14501096 47668
1 48214U 21031E   22101.79663117  .00000053  00000-0  10782-3 0  9991
2 48214  87.8987 233.2019 0002295  62.6159 297.5204 13.14501250 47715
1 48214U 21031E   22101.87274896  .00000082  00000-0  18694-3 0  9994
2 48214  87.8987 233.1868 0002290  62.5216 297.6146 13.14501092 47725
1 48214U 21031E   22102.40557370  .00000071  00000-0  15821-3 0  9992
2 48214  87.8988 233.0808 0002278  62.6055 297.5306 13.14500719 47796
1 48214U 21031E   22102.86228056 -.00000137  00000-0 -40516-3 0  9992
2 48214  87.8989 232.9899 0002246  62.0149 298.1207 13.14501269 47853
1 48214U 21031E   22103.09063386 -.00000074  00000-0 -23338-3 0  9994
2 48214  87.8989 232.9445 0002236  61.7997 298.3358 13.14501066 47883
1 48214U 21031E   22103.39510501 -.00000109  00000-0 -32978-3 0  9992
2 48214  87.8990 232.8839 0002221  61.6533 298.4820 13.14501196 47924
1 48214U 21031E   22103.85181223 -.00000181  00000-0 -52378-3 0  9994
2 48214  87.8990 232.7931 0002196  61.4095 298.7255 13.14500866 47982
1 48214U 21031E   22104.38463664 -.00000162  00000-0 -47174-3 0  9992
2 48214  87.8991 232.6870 0002160  60.7826 299.3520 13.14501342 48050
1 48214U 21031E   22104.38463664 -.00000162  00000-0 -47174-3 0  9992
2 48214  87.8991 232.6870 0002160  60.7826 299.3520 13.14501342 48050
1 48214U 21031E   22104.61299088 -.00000249  00000-0 -70691-3 0  9991
2 48214  87.8992 232.6416 0002147  60.3003 299.8340 13.14500722 48084
1 48214U 21031E   22105.37416934 -.00000199  00000-0 -57214-3 0  9996
2 48214  87.8993 232.4899 0002103  59.3960 300.7377 13.14501053 48181
1 48214U 21031E   22105.75475889 -.00000184  00000-0 -53010-3 0  9996
2 48214  87.8994 232.4143 0002086  59.0103 301.1231 13.14501113 48237
1 48214U 21031E   22105.90699453 -.00000138  00000-0 -40593-3 0  9999
2 48214  87.8994 232.3839 0002076  58.5801 301.5531 13.14501178 48256
1 48214U 21031E   22106.59205618 -.00000116  00000-0 -34663-3 0  9998
2 48214  87.8996 232.2478 0002049  58.5368 301.5962 13.14501083 48347
1 48214U 21031E   22106.82040986 -.00000005  00000-0 -47759-4 0  9997
2 48214  87.8997 232.2023 0002036  58.6755 301.4574 13.14501139 48374
1 48214U 21031E   22106.89652816 -.00000145  00000-0 -42567-3 0  9991
2 48214  87.8996 232.1871 0002031  58.9174 301.2154 13.14501194 48380
1 48214U 21031E   22107.58158841  .00000156  00000-0  38510-3 0  9990
2 48214  87.8997 232.0510 0001997  58.5408 301.5917 13.14501842 48476
1 48214U 21031E   22107.88605959  .00000191  00000-0  47951-3 0  9998
2 48214  87.8998 231.9905 0001982  58.2390 301.8932 13.14502532 48516
1 48214U 21031E   22107.88605959  .00000191  00000-0  47951-3 0  9998
2 48214  87.8998 231.9905 0001982  58.2390 301.8932 13.14502532 48516
1 48214U 21031E   22108.57111960  .00000368  00000-0  95902-3 0  9994
2 48214  87.8999 231.8543 0001942  57.9407 302.1911 13.14503144 48606
1 48214U 21031E   22108.79947392  .00000314  00000-0  81271-3 0  9999
2 48214  87.8999 231.8090 0001914  57.3485 302.7829 13.14502511 48636
1 48214U 21031E   22109.10394503  .00000313  00000-0  80884-3 0  9993
2 48214  87.9000 231.7484 0001899  57.4050 302.7262 13.14502915 48670
1 48214U 21031E   22109.40841625  .00000188  00000-0  47159-3 0  9996
2 48214  87.9001 231.6881 0001882  55.9470 304.1838 13.14503406 48718
1 48214U 21031E   22110.39794629  .00000261  00000-0  66843-3 0  9990
2 48214  87.9002 231.4914 0001818  54.1600 305.9699 13.14504185 48842
1 48214U 21031E   22110.62629949  .00000243  00000-0  62052-3 0  9996
2 48214  87.9003 231.4460 0001804  54.1701 305.9596 13.14504087 48876
1 48214U 21031E   22111.38747668  .00000207  00000-0  52305-3 0  9999
2 48214  87.9003 231.2946 0001750  54.4789 305.6504 13.14503643 48976
1 48214U 21031E   22111.61582937  .00000223  00000-0  56686-3 0  9995
2 48214  87.9003 231.2492 0001737  54.3070 305.8221 13.14503970 49005
1 48214U 21031E   22112.37700609  .00000029  00000-0  44043-4 0  9996
2 48214  87.9004 231.0979 0001708  54.8563 305.2726 13.14504006 49100
1 48214U 21031E   22113.06206461 -.00000044  00000-0 -15384-3 0  9994
2 48214  87.9006 230.9619 0001680  57.2767 302.8525 13.14504164 49197
1 48214U 21031E   22113.59488893 -.00000160  00000-0 -46702-3 0  9990
2 48214  87.9007 230.8560 0001629  56.0512 304.0772 13.14503164 49265
